IRIDIUM 160             
1 43569U 18061A   25135.65887109  .00000015  00000+0 -16568-5 0  9990
2 43569  86.4010 222.8586 0001917  94.8946 265.2468 14.34217738356398
IRIDIUM 166             
1 43570U 18061B   25135.54470554  .00000341  00000+0  11452-3 0  9998
2 43570  86.4007 222.8619 0002547  96.3963 263.7523 14.34217782356405
IRIDIUM 158             
1 43571U 18061C   25135.30368659  .00000070  00000+0  18087-4 0  9996
2 43571  86.4007 222.9724 0002276 100.8231 259.3221 14.34218007356331
IRIDIUM 165             
1 43572U 18061D   25135.32906317  .00000291  00000+0  96950-4 0  9998
2 43572  86.4009 223.0004 0002466  92.5556 267.5922 14.34220671356367
IRIDIUM 155             
1 43573U 18061E   25135.29100161 -.00000023  00000+0 -15269-4 0  9997
2 43573  86.4004 222.9054 0002298 102.6564 257.4889 14.34217483356324
IRIDIUM 154             
1 43574U 18061F   25135.34174200  .00000084  00000+0  22757-4 0  9994
2 43574  86.4009 222.9979 0002295  96.1757 263.9700 14.34217166356382
IRIDIUM 163             
1 43575U 18061G   25135.32271386 -.00000016  00000+0 -12832-4 0  9996
2 43575  86.4006 222.9339 0002011  98.5705 261.5718 14.34217568356351
IRIDIUM 156             
1 43576U 18061H   25135.57641853  .00000101  00000+0  28908-4 0  9998
2 43576  86.4005 222.8347 0002557 101.8371 258.3112 14.34217999356384
IRIDIUM 164             
1 43577U 18061J   25135.76669597 -.00000045  00000+0 -23019-4 0  9992
2 43577  86.4007 222.7892 0002378  91.1990 268.9478 14.34217429356458
IRIDIUM 159             
1 43578U 18061K   25136.22336243  .00000077  00000+0  20294-4 0  9999
2 43578  86.4009 222.5440 0002146  90.1008 270.0434 14.34218018356484
IRIDIUM 180             
1 43922U 19002A   25136.08332036  .00000012  00000+0 -29396-5 0  9991
2 43922  86.3984 159.5895 0002223  93.5680 266.5770 14.34217466332113
